STARLINK-35566          
1 66061U 25235D   26068.75022624  .00021336  00000+0  73036-3 0  9992
2 66061  53.1598 244.7815 0000945  58.9602 301.1491 15.30202439 22935
KUIPER-00175            
1 67135U 25301C   26068.97960463  .00019968  00000+0  66732-3 0  9998
2 67135  51.8781  63.6978 0002279  50.5695 309.5490 15.30996371 13854
